{"type": "FeatureCollection", "features": [ {"type": "Feature", "properties": {"norad_id": 44543, "name": "BEIDOU-3 M23 (C45)", "group": "beidou", "lat": 12.65981549259999, "lon": -0.053030854446109395, "alt_km": 21540.32408389527, "timestamp": "2025-12-06T07:31:40.502358+00:00", "meta": {"OBJECT_NAME": "BEIDOU-3 M23 (C45)", "OBJECT_ID": "2019-061B", "EPOCH": "2025-12-04T17:20:06.370944", "MEAN_MOTION": 1.86227466, "ECCENTRICITY": 0.0006129, "INCLINATION": 54.3989, "RA_OF_ASC_NODE": 189.2553, "ARG_OF_PERICENTER": 23.0087, "MEAN_ANOMALY": 154.4182, "EPHEMERIS_TYPE": 0, "CLASSIFICATION_TYPE": "U", "NORAD_CAT_ID": 44543, "ELEMENT_SET_NO": 999, "REV_AT_EPOCH": 4217, "BSTAR": 0, "MEAN_MOTION_DOT": 1e-06, "MEAN_MOTION_DDOT": 0}, "tle": {"line1": "1 44543U 19061B   25338.72229596  .00000100  00000+0  00000+0 0  9999", "line2": "2 44543  54.3989 189.2553 0006129  23.0087 154.4182  1.86227466 42172"}}, "geometry": {"type": "Point", "coordinates": [-0.053030854446109395, 12.65981549259999]}}, {"type": "Feature", "properties": {"norad_id": 44709, "name": "BEIDOU-3 IGSO-3 (C40)", "group": "beidou", "lat": 15.689051691780117, "lon": -65.78625332968986, "alt_km": 35978.603334296684, "timestamp": "2025-12-06T07:31:40.502370+00:00", "meta": {"OBJECT_NAME": "BEIDOU-3 IGSO-3 (C40)", "OBJECT_ID": "2019-073A", "EPOCH": "2025-11-20T07:11:22.740000", "MEAN_MOTION": 1.00250097, "ECCENTRICITY": 0.0044538, "INCLINATION": 55.163, "RA_OF_ASC_NODE": 283.159, "ARG_OF_PERICENTER": 191.5856, "MEAN_ANOMALY": 168.2409, "EPHEMERIS_TYPE": 0, "CLASSIFICATION_TYPE": "U", "NORAD_CAT_ID": 44709, "ELEMENT_SET_NO": 999, "REV_AT_EPOCH": 2236, "BSTAR": 0, "MEAN_MOTION_DOT": -2.06e-06, "MEAN_MOTION_DDOT": 0}, "tle": {"line1": "1 44709U 19073A   25324.29956875 -.00000206  00000+0  00000+0 0  9998", "line2": "2 44709  55.1630 283.1590 0044538 191.5856 168.2409  1.00250097 22360"}}, "geometry": {"type": "Point", "coordinates": [-65.78625332968986, 15.689051691780117]}}, {"type": "Feature", "properties": {"norad_id": 44793, "name": "BEIDOU-3 M22 (C44)", "group": "beidou", "lat": -1.1112048380631223, "lon": -54.215720282223955, "alt_km": 21513.840242658956, "timestamp": "2025-12-06T07:31:40.502384+00:00", "meta": {"OBJECT_NAME": "BEIDOU-3 M22 (C44)", "OBJECT_ID": "2019-078A", "EPOCH": "2025-12-05T05:48:12.091968", "MEAN_MOTION": 1.86231803, "ECCENTRICITY": 0.00057198, "INCLINATION": 54.1154, "RA_OF_ASC_NODE": 306.6493, "ARG_OF_PERICENTER": 22.8272, "MEAN_ANOMALY": 337.1804, "EPHEMERIS_TYPE": 0, "CLASSIFICATION_TYPE": "U", "NORAD_CAT_ID": 44793, "ELEMENT_SET_NO": 999, "REV_AT_EPOCH": 4103, "BSTAR": 0, "MEAN_MOTION_DOT": -6.9e-07, "MEAN_MOTION_DDOT": 0}, "tle": {"line1": "1 44793U 19078A   25339.24180662 -.00000069  00000+0  00000+0 0  9997", "line2": "2 44793  54.1154 306.6493 0005719  22.8272 337.1804  1.86231803 41031"}}, "geometry": {"type": "Point", "coordinates": [-54.215720282223955, -1.1112048380631223]}}, {"type": "Feature", "properties": {"norad_id": 44794, "name": "BEIDOU-3 M21 (C43)", "group": "beidou", "lat": -53.93321707240764, "lon": -149.53892535354876, "alt_km": 21536.932131410693, "timestamp": "2025-12-06T07:31:40.502396+00:00", "meta": {"OBJECT_NAME": "BEIDOU-3 M21 (C43)", "OBJECT_ID": "2019-078B", "EPOCH": "2025-12-04T20:12:58.826592", "MEAN_MOTION": 1.8622755, "ECCENTRICITY": 0.00039728, "INCLINATION": 54.0888, "RA_OF_ASC_NODE": 306.6286, "ARG_OF_PERICENTER": 10.8918, "MEAN_ANOMALY": 349.0991, "EPHEMERIS_TYPE": 0, "CLASSIFICATION_TYPE": "U", "NORAD_CAT_ID": 44794, "ELEMENT_SET_NO": 999, "REV_AT_EPOCH": 4103, "BSTAR": 0, "MEAN_MOTION_DOT": -6.9e-07, "MEAN_MOTION_DDOT": 0}, "tle": {"line1": "1 44794U 19078B   25338.84234753 -.00000069  00000+0  00000+0 0  9994", "line2": "2 44794  54.0888 306.6286 0003972  10.8918 349.0991  1.86227550 41031"}}, "geometry": {"type": "Point", "coordinates": [-149.53892535354876, -53.93321707240764]}}, {"type": "Feature", "properties": {"norad_id": 44864, "name": "BEIDOU-3 M19 (C41)", "group": "beidou", "lat": 54.52832175011255, "lon": -179.56425934870364, "alt_km": 21570.60502071066, "timestamp": "2025-12-06T07:31:40.502407+00:00", "meta": {"OBJECT_NAME": "BEIDOU-3 M19 (C41)", "OBJECT_ID": "2019-090A", "EPOCH": "2025-12-02T22:27:31.551840", "MEAN_MOTION": 1.86231053, "ECCENTRICITY": 0.00175607, "INCLINATION": 56.3847, "RA_OF_ASC_NODE": 69.2872, "ARG_OF_PERICENTER": 284.9296, "MEAN_ANOMALY": 72.494, "EPHEMERIS_TYPE": 0, "CLASSIFICATION_TYPE": "U", "NORAD_CAT_ID": 44864, "ELEMENT_SET_NO": 999, "REV_AT_EPOCH": 4057, "BSTAR": 0, "MEAN_MOTION_DOT": -4.9e-07, "MEAN_MOTION_DDOT": 0}, "tle": {"line1": "1 44864U 19090A   25336.93578185 -.00000049  00000+0  00000+0 0  9992", "line2": "2 44864  56.3847  69.2872 0017560 284.9296  72.4940  1.86231053 40575"}}, "geometry": {"type": "Point", "coordinates": [-179.56425934870364, 54.52832175011255]}}, {"type": "Feature", "properties": {"norad_id": 44865, "name": "BEIDOU-3 M20 (C42)", "group": "beidou", "lat": -9.647580129973695, "lon": -104.30140948180933, "alt_km": 21540.97268478087, "timestamp": "2025-12-06T07:31:40.502418+00:00", "meta": {"OBJECT_NAME": "BEIDOU-3 M20 (C42)", "OBJECT_ID": "2019-090B", "EPOCH": "2025-12-03T10:37:23.867040", "MEAN_MOTION": 1.86231029, "ECCENTRICITY": 0.00147135, "INCLINATION": 56.3867, "RA_OF_ASC_NODE": 69.3045, "ARG_OF_PERICENTER": 297.7194, "MEAN_ANOMALY": 129.1388, "EPHEMERIS_TYPE": 0, "CLASSIFICATION_TYPE": "U", "NORAD_CAT_ID": 44865, "ELEMENT_SET_NO": 999, "REV_AT_EPOCH": 4057, "BSTAR": 0, "MEAN_MOTION_DOT": -5e-07, "MEAN_MOTION_DDOT": 0}, "tle": {"line1": "1 44865U 19090B   25337.44263735 -.00000050  00000+0  00000+0 0  9994", "line2": "2 44865  56.3867  69.3045 0014713 297.7194 129.1388  1.86231029 40576"}}, "geometry": {"type": "Point", "coordinates": [-104.30140948180933, -9.647580129973695]}}, {"type": "Feature", "properties": {"norad_id": 45344, "name": "BEIDOU-3 G2 (C60)", "group": "beidou", "lat": -2.1244496403571067, "lon": -91.76396522361135, "alt_km": 35771.41438514314, "timestamp": "2025-12-06T07:31:40.502430+00:00", "meta": {"OBJECT_NAME": "BEIDOU-3 G2 (C60)", "OBJECT_ID": "2020-017A", "EPOCH": "2025-12-04T17:58:38.677728", "MEAN_MOTION": 1.00270166, "ECCENTRICITY": 0.00047217, "INCLINATION": 2.9855, "RA_OF_ASC_NODE": 43.5954, "ARG_OF_PERICENTER": 263.9725, "MEAN_ANOMALY": 115.9595, "EPHEMERIS_TYPE": 0, "CLASSIFICATION_TYPE": "U", "NORAD_CAT_ID": 45344, "ELEMENT_SET_NO": 999, "REV_AT_EPOCH": 2131, "BSTAR": 0, "MEAN_MOTION_DOT": -1.29e-06, "MEAN_MOTION_DDOT": 0}, "tle": {"line1": "1 45344U 20017A   25338.74905877 -.00000129  00000+0  00000+0 0  9999", "line2": "2 45344   2.9855  43.5954 0004721 263.9725 115.9595  1.00270166 21314"}}, "geometry": {"type": "Point", "coordinates": [-91.76396522361135, -2.1244496403571067]}}, {"type": "Feature", "properties": {"norad_id": 45807, "name": "BEIDOU-3 G3 (C61)", "group": "beidou", "lat": -1.574504759789662, "lon": -61.352847014755646, "alt_km": 35781.540472190325, "timestamp": "2025-12-06T07:31:40.502442+00:00", "meta": {"OBJECT_NAME": "BEIDOU-3 G3 (C61)", "OBJECT_ID": "2020-040A", "EPOCH": "2025-12-05T07:22:27.344352", "MEAN_MOTION": 1.00265618, "ECCENTRICITY": 0.00050937, "INCLINATION": 1.9721, "RA_OF_ASC_NODE": 66.5517, "ARG_OF_PERICENTER": 303.8384, "MEAN_ANOMALY": 285.0644, "EPHEMERIS_TYPE": 0, "CLASSIFICATION_TYPE": "U", "NORAD_CAT_ID": 45807, "ELEMENT_SET_NO": 999, "REV_AT_EPOCH": 2012, "BSTAR": 0, "MEAN_MOTION_DOT": -3.43e-06, "MEAN_MOTION_DDOT": 0}, "tle": {"line1": "1 45807U 20040A   25339.30726093 -.00000343  00000+0  00000+0 0  9991", "line2": "2 45807   1.9721  66.5517 0005093 303.8384 285.0644  1.00265618 20125"}}, "geometry": {"type": "Point", "coordinates": [-61.352847014755646, -1.574504759789662]}}, {"type": "Feature", "properties": {"norad_id": 56564, "name": "BEIDOU-3 G4 (C62)", "group": "beidou", "lat": 0.6140873758307084, "lon": -11.670978104910866, "alt_km": 35799.65958393608, "timestamp": "2025-12-06T07:31:40.502454+00:00", "meta": {"OBJECT_NAME": "BEIDOU-3 G4 (C62)", "OBJECT_ID": "2023-066A", "EPOCH": "2025-12-05T05:53:56.141952", "MEAN_MOTION": 1.0027092, "ECCENTRICITY": 0.00032408, "INCLINATION": 0.8323, "RA_OF_ASC_NODE": 301.4128, "ARG_OF_PERICENTER": 236.5072, "MEAN_ANOMALY": 144.9372, "EPHEMERIS_TYPE": 0, "CLASSIFICATION_TYPE": "U", "NORAD_CAT_ID": 56564, "ELEMENT_SET_NO": 999, "REV_AT_EPOCH": 945, "BSTAR": 0, "MEAN_MOTION_DOT": -9.8e-07, "MEAN_MOTION_DDOT": 0}, "tle": {"line1": "1 56564U 23066A   25339.24578868 -.00000098  00000+0  00000+0 0  9999", "line2": "2 56564   0.8323 301.4128 0003240 236.5072 144.9372  1.00270920  9456"}}, "geometry": {"type": "Point", "coordinates": [-11.670978104910866, 0.6140873758307084]}}, {"type": "Feature", "properties": {"norad_id": 58654, "name": "BEIDOU-3 M28 (C50)", "group": "beidou", "lat": -27.440303119030006, "lon": -90.34980295597896, "alt_km": 21528.21543364675, "timestamp": "2025-12-06T07:31:40.502465+00:00", "meta": {"OBJECT_NAME": "BEIDOU-3 M28 (C50)", "OBJECT_ID": "2023-207A", "EPOCH": "2025-12-03T07:26:02.398272", "MEAN_MOTION": 1.86229561, "ECCENTRICITY": 0.00020314, "INCLINATION": 55.5764, "RA_OF_ASC_NODE": 68.9209, "ARG_OF_PERICENTER": 265.1091, "MEAN_ANOMALY": 94.871, "EPHEMERIS_TYPE": 0, "CLASSIFICATION_TYPE": "U", "NORAD_CAT_ID": 58654, "ELEMENT_SET_NO": 999, "REV_AT_EPOCH": 1319, "BSTAR": 0, "MEAN_MOTION_DOT": -5.1e-07, "MEAN_MOTION_DDOT": 0}, "tle": {"line1": "1 58654U 23207A   25337.30974998 -.00000051  00000+0  00000+0 0  9996", "line2": "2 58654  55.5764  68.9209 0002031 265.1091  94.8710  1.86229561 13199"}}, "geometry": {"type": "Point", "coordinates": [-90.34980295597896, -27.440303119030006]}}]}